{
"type": "FeatureCollection",
"name": "cuba_administrative_geographic_names",
"crs": { "type": "name", "properties": { "name": "urn:ogc:def:crs:OGC:1.3:CRS84" } },
"features": [
{ "type": "Feature", "properties": { "id": "01a0b893-9647-773c-87f5-2e70378ee93d", "codpa_code": "21", "name": "Pinar del Río", "level": "province", "province_code": "21", "province_name": "Pinar del Río", "gns_id": "-1638165", "geonames_id": "3544088", "overture_id": "7c040c50-ff5f-485c-86e3-e9d4f2ff776f", "lat": 22.41667, "lon": -83.83333 }, "geometry": { "type": "Point", "coordinates": [ -83.83333, 22.41667 ] } },
{ "type": "Feature", "properties": { "id": "01a0b893-9647-773c-87f5-2e71a71b0886", "codpa_code": "21.01", "name": "Sandino", "level": "municipality", "province_code": "21", "province_name": "Pinar del Río", "gns_id": "14592999", "geonames_id": "11287605", "overture_id": "c8dce969-52e3-4195-903d-73c308a2850e", "lat": 22.042999, "lon": -84.207086 }, "geometry": { "type": "Point", "coordinates": [ -84.207086, 22.042999 ] } },
{ "type": "Feature", "properties": { "id": "01a0b893-9647-773c-87f5-2e720004ac12", "codpa_code": "21.02", "name": "Mantua", "level": "municipality", "province_code": "21", "province_name": "Pinar del Río", "gns_id": "-1634314", "geonames_id": "3547929", "overture_id": "56dbd045-8c39-41a9-9bc2-51a7c2dc0bce", "lat": 22.339615, "lon": -84.259327 }, "geometry": { "type": "Point", "coordinates": [ -84.259327, 22.339615 ] } },
{ "type": "Feature", "properties": { "id": "01a0b893-9647-773c-87f5-2e731a7aea47", "codpa_code": "21.03", "name": "Minas de Matahambre", "level": "municipality", "province_code": "21", "province_name": "Pinar del Río", "gns_id": "14593000", "geonames_id": "11288064", "overture_id": "4567612c-7125-4796-9648-0b3c58e075aa", "lat": 22.542314, "lon": -83.963531 }, "geometry": { "type": "Point", "coordinates": [ -83.963531, 22.542314 ] } },
{ "type": "Feature", "properties": { "id": "01a0b893-9647-773c-87f5-2e743a2a219e", "codpa_code": "21.04", "name": "Viñales", "level": "municipality", "province_code": "21", "province_name": "Pinar del Río", "gns_id": "-1648183", "geonames_id": "3534093", "overture_id": "f07b7ba2-4156-4c40-b933-10ba4d5d5751", "lat": 22.629305, "lon": -83.740225 }, "geometry": { "type": "Point", "coordinates": [ -83.740225, 22.629305 ] } },
{ "type": "Feature", "properties": { "id": "01a0b893-9647-773c-87f5-2e75e818e52d", "codpa_code": "21.05", "name": "La Palma", "level": "municipality", "province_code": "21", "province_name": "Pinar del Río", "gns_id": "-1629919", "geonames_id": "3552311", "overture_id": "74b3aee2-23ec-4172-96f2-fbba128129df", "lat": 22.745807, "lon": -83.509601 }, "geometry": { "type": "Point", "coordinates": [ -83.509601, 22.745807 ] } },
{ "type": "Feature", "properties": { "id": "01a0b893-9647-773c-87f5-2e76f966b54d", "codpa_code": "21.06", "name": "Los Palacios", "level": "municipality", "province_code": "21", "province_name": "Pinar del Río", "gns_id": "-1633246", "geonames_id": "3548992", "overture_id": "2fbbe53e-a093-4e18-b9ba-05995ee40a87", "lat": 22.523146, "lon": -83.250268 }, "geometry": { "type": "Point", "coordinates": [ -83.250268, 22.523146 ] } },
{ "type": "Feature", "properties": { "id": "01a0b893-9647-773c-87f5-2e77d74fa67c", "codpa_code": "21.07", "name": "Consolación del Sur", "level": "municipality", "province_code": "21", "province_name": "Pinar del Río", "gns_id": "-1618639", "geonames_id": "3563558", "overture_id": "1269ff72-1ff1-40b0-8ba0-dbac426118b1", "lat": 22.441334, "lon": -83.4399 }, "geometry": { "type": "Point", "coordinates": [ -83.4399, 22.441334 ] } },
{ "type": "Feature", "properties": { "id": "01a0b893-9647-773c-87f5-2e786b2a2867", "codpa_code": "21.08", "name": "Pinar del Río", "level": "municipality", "province_code": "21", "province_name": "Pinar del Río", "gns_id": "-1638164", "geonames_id": "3544089", "overture_id": "b9d7044a-dccc-4289-a8dd-dbf5352a897a", "lat": 22.364868, "lon": -83.629043 }, "geometry": { "type": "Point", "coordinates": [ -83.629043, 22.364868 ] } },
{ "type": "Feature", "properties": { "id": "01a0b893-9647-773c-87f5-2e79058cbe37", "codpa_code": "21.09", "name": "San Luis", "level": "municipality", "province_code": "21", "province_name": "Pinar del Río", "gns_id": "-1643192", "geonames_id": "3539072", "overture_id": "5d262754-3b1d-44b5-a4f1-15dd1e67442e", "lat": 22.244108, "lon": -83.717673 }, "geometry": { "type": "Point", "coordinates": [ -83.717673, 22.244108 ] } },
{ "type": "Feature", "properties": { "id": "01a0b893-9647-773c-87f5-2e7a3608a7aa", "codpa_code": "21.10", "name": "San Juan y Martínez", "level": "municipality", "province_code": "21", "province_name": "Pinar del Río", "gns_id": "-1643006", "geonames_id": "3539257", "overture_id": "1150cf63-6d57-484a-a46c-4bfad227322b", "lat": 22.291719, "lon": -83.870858 }, "geometry": { "type": "Point", "coordinates": [ -83.870858, 22.291719 ] } },
{ "type": "Feature", "properties": { "id": "01a0b893-9647-773c-87f5-2e7b98de5d8e", "codpa_code": "21.11", "name": "Guane", "level": "municipality", "province_code": "21", "province_name": "Pinar del Río", "gns_id": "-1624455", "geonames_id": "3557756", "overture_id": "7a810381-deee-4b6a-beec-8e6d45fbdd08", "lat": 22.260279, "lon": -84.066573 }, "geometry": { "type": "Point", "coordinates": [ -84.066573, 22.260279 ] } },
{ "type": "Feature", "properties": { "id": "01a0b893-9647-773c-87f5-2e7ca18169aa", "codpa_code": "22", "name": "Artemisa", "level": "province", "province_code": "22", "province_name": "Artemisa", "gns_id": "11135090", "geonames_id": "7668824", "overture_id": "27eccfb5-e499-4c73-8645-0351fcff35d0", "lat": 22.833333, "lon": -82.833333 }, "geometry": { "type": "Point", "coordinates": [ -82.833333, 22.833333 ] } },
{ "type": "Feature", "properties": { "id": "01a0b893-9647-773c-87f5-2e7d028db61c", "codpa_code": "22.01", "name": "Bahía Honda", "level": "municipality", "province_code": "22", "province_name": "Artemisa", "gns_id": "14593768", "geonames_id": "11288249", "overture_id": "6d0aa179-b78b-4dcd-9b93-11f3f58ca384", "lat": 22.88539042, "lon": -83.17074447 }, "geometry": { "type": "Point", "coordinates": [ -83.17074447, 22.88539042 ] } },
{ "type": "Feature", "properties": { "id": "01a0b893-9647-773c-87f5-2e7e9af0c1aa", "codpa_code": "22.02", "name": "Mariel", "level": "municipality", "province_code": "22", "province_name": "Artemisa", "gns_id": "-1634650", "geonames_id": "3547597", "overture_id": "6770eca3-c319-4ef8-b827-611f70dfb419", "lat": 22.976569, "lon": -82.815687 }, "geometry": { "type": "Point", "coordinates": [ -82.815687, 22.976569 ] } },
{ "type": "Feature", "properties": { "id": "01a0b893-9647-773c-87f5-2e7f8b4d8124", "codpa_code": "22.03", "name": "Guanajay", "level": "municipality", "province_code": "22", "province_name": "Artemisa", "gns_id": "-1624411", "geonames_id": "3557800", "overture_id": "6b8cf921-e1e6-4267-a5fd-89bd13ea50f3", "lat": 22.908901, "lon": -82.728563 }, "geometry": { "type": "Point", "coordinates": [ -82.728563, 22.908901 ] } },
{ "type": "Feature", "properties": { "id": "01a0b893-9647-773c-87f5-2e8099b3d1ae", "codpa_code": "22.04", "name": "Caimito", "level": "municipality", "province_code": "22", "province_name": "Artemisa", "gns_id": "-1615903", "geonames_id": "3566283", "overture_id": "f98eaf65-ffec-418a-b1cb-12f5c11173c9", "lat": 22.930231, "lon": -82.623409 }, "geometry": { "type": "Point", "coordinates": [ -82.623409, 22.930231 ] } },
{ "type": "Feature", "properties": { "id": "01a0b893-9647-773c-87f5-2e81c47177ae", "codpa_code": "22.05", "name": "Bauta", "level": "municipality", "province_code": "22", "province_name": "Artemisa", "gns_id": "-1614570", "geonames_id": "3567611", "overture_id": "1420186f-a5fe-419b-840e-30e06d281897", "lat": 22.986893, "lon": -82.52236 }, "geometry": { "type": "Point", "coordinates": [ -82.52236, 22.986893 ] } },
{ "type": "Feature", "properties": { "id": "01a0b893-9647-773c-87f5-2e82f0921cca", "codpa_code": "22.06", "name": "San Antonio de los Baños", "level": "municipality", "province_code": "22", "province_name": "Artemisa", "gns_id": "-1641376", "geonames_id": "3540884", "overture_id": "831dd91d-bef5-4523-b1c4-c07c65886b59", "lat": 22.885228, "lon": -82.504311 }, "geometry": { "type": "Point", "coordinates": [ -82.504311, 22.885228 ] } },
{ "type": "Feature", "properties": { "id": "01a0b893-9647-773c-87f5-2e83d63a3104", "codpa_code": "22.07", "name": "Güira de Melena", "level": "municipality", "province_code": "22", "province_name": "Artemisa", "gns_id": "-1624868", "geonames_id": "3557346", "overture_id": "06d03791-4923-4d85-ad5a-4605472d40ba", "lat": 22.745854, "lon": -82.491749 }, "geometry": { "type": "Point", "coordinates": [ -82.491749, 22.745854 ] } },
{ "type": "Feature", "properties": { "id": "01a0b893-9647-773c-87f5-2e84e04500be", "codpa_code": "22.08", "name": "Alquízar", "level": "municipality", "province_code": "22", "province_name": "Artemisa", "gns_id": "-1613038", "geonames_id": "3569135", "overture_id": "71a245c4-f761-4dae-a01b-17bee2c61b61", "lat": 22.762083, "lon": -82.605765 }, "geometry": { "type": "Point", "coordinates": [ -82.605765, 22.762083 ] } },
{ "type": "Feature", "properties": { "id": "01a0b893-9647-773c-87f5-2e8545087489", "codpa_code": "22.09", "name": "Artemisa", "level": "municipality", "province_code": "22", "province_name": "Artemisa", "gns_id": "-1613867", "geonames_id": "3568311", "overture_id": "8daed9cd-0c6c-44a1-99bc-b67b4545b626", "lat": 22.782808, "lon": -82.816571 }, "geometry": { "type": "Point", "coordinates": [ -82.816571, 22.782808 ] } },
{ "type": "Feature", "properties": { "id": "01a0b893-9647-773c-87f5-2e86817d062a", "codpa_code": "22.10", "name": "Candelaria", "level": "municipality", "province_code": "22", "province_name": "Artemisa", "gns_id": "-1616429", "geonames_id": "3565758", "overture_id": "5904d1a3-d4dd-4244-876c-bdaf4402cc9b", "lat": 22.73974716, "lon": -82.97257606 }, "geometry": { "type": "Point", "coordinates": [ -82.97257606, 22.73974716 ] } },
{ "type": "Feature", "properties": { "id": "01a0b893-9647-773c-87f5-2e878c88a1ec", "codpa_code": "22.11", "name": "San Cristóbal", "level": "municipality", "province_code": "22", "province_name": "Artemisa", "gns_id": "-1641588", "geonames_id": "3540673", "overture_id": "001efa7c-c00a-4d39-930a-fb547515ba02", "lat": 22.662053, "lon": -83.114553 }, "geometry": { "type": "Point", "coordinates": [ -83.114553, 22.662053 ] } },
{ "type": "Feature", "properties": { "id": "01a0b893-9647-773c-87f5-2e881c9a9c92", "codpa_code": "23", "name": "La Habana", "level": "province", "province_code": "23", "province_name": "La Habana", "gns_id": "-1618120", "geonames_id": "3564073", "overture_id": "920732fe-62a1-42ae-90b7-037b8f0ce9a3", "lat": 23.08333, "lon": -82.3 }, "geometry": { "type": "Point", "coordinates": [ -82.3, 23.08333 ] } },
{ "type": "Feature", "properties": { "id": "01a0b893-9647-773c-87f5-2e89b9c24059", "codpa_code": "23.01", "name": "Playa", "level": "municipality", "province_code": "23", "province_name": "La Habana", "gns_id": "14594032", "geonames_id": "11288253", "overture_id": "db03564d-4072-4ec9-b2ec-d49056d15b05", "lat": 23.08455861, "lon": -82.4610778 }, "geometry": { "type": "Point", "coordinates": [ -82.4610778, 23.08455861 ] } },
{ "type": "Feature", "properties": { "id": "01a0b893-9647-773c-87f5-2e8a4b130cb1", "codpa_code": "23.02", "name": "Plaza de la Revolución", "level": "municipality", "province_code": "23", "province_name": "La Habana", "gns_id": "14594030", "geonames_id": "11288075", "overture_id": "cbef02e8-38fd-4781-81e7-2ebf916e05aa", "lat": 23.125896, "lon": -82.395129 }, "geometry": { "type": "Point", "coordinates": [ -82.395129, 23.125896 ] } },
{ "type": "Feature", "properties": { "id": "01a0b893-9647-773c-87f5-2e8bb6a21be3", "codpa_code": "23.03", "name": "Centro Habana", "level": "municipality", "province_code": "23", "province_name": "La Habana", "gns_id": "14594029", "geonames_id": "11288068", "overture_id": "0164a2fe-4967-4a8d-8abb-45ba891397ad", "lat": 23.134462, "lon": -82.36939 }, "geometry": { "type": "Point", "coordinates": [ -82.36939, 23.134462 ] } },
{ "type": "Feature", "properties": { "id": "01a0b893-9647-773c-87f5-2e8c7ae3b46c", "codpa_code": "23.04", "name": "La Habana Vieja", "level": "municipality", "province_code": "23", "province_name": "La Habana", "gns_id": "14594028", "geonames_id": "11288073", "overture_id": "603131fc-7925-4cd4-97bb-f0a08cf7155f", "lat": 23.13125757, "lon": -82.3560311 }, "geometry": { "type": "Point", "coordinates": [ -82.3560311, 23.13125757 ] } },
{ "type": "Feature", "properties": { "id": "01a0b893-9647-773c-87f5-2e8d0bd2034a", "codpa_code": "23.05", "name": "Regla", "level": "municipality", "province_code": "23", "province_name": "La Habana", "gns_id": "-1639754", "geonames_id": "3542500", "overture_id": "69db2ae0-8504-4057-bec6-253229291502", "lat": 23.12298946, "lon": -82.33000817 }, "geometry": { "type": "Point", "coordinates": [ -82.33000817, 23.12298946 ] } },
{ "type": "Feature", "properties": { "id": "01a0b893-9647-773c-87f5-2e8e80a22a2e", "codpa_code": "23.06", "name": "La Habana del Este", "level": "municipality", "province_code": "23", "province_name": "La Habana", "gns_id": "14594025", "geonames_id": "11288072", "overture_id": "b4591190-ee1d-41fb-bc2f-377d15d9ce72", "lat": 23.1437783, "lon": -82.13501621 }, "geometry": { "type": "Point", "coordinates": [ -82.13501621, 23.1437783 ] } },
{ "type": "Feature", "properties": { "id": "01a0b893-9647-773c-87f5-2e8fac1038e5", "codpa_code": "23.07", "name": "Guanabacoa", "level": "municipality", "province_code": "23", "province_name": "La Habana", "gns_id": "-1624366", "geonames_id": "3557845", "overture_id": "e2259ce9-1045-42f5-872c-3ebad92f969c", "lat": 23.107778, "lon": -82.231513 }, "geometry": { "type": "Point", "coordinates": [ -82.231513, 23.107778 ] } },
{ "type": "Feature", "properties": { "id": "01a0b893-9647-773c-87f5-2e90ef33f8ba", "codpa_code": "23.08", "name": "San Miguel del Padrón", "level": "municipality", "province_code": "23", "province_name": "La Habana", "gns_id": "14594026", "geonames_id": "11288076", "overture_id": "71152b9f-acc6-4d96-949a-9cdf6d8bf4d0", "lat": 23.081464, "lon": -82.308673 }, "geometry": { "type": "Point", "coordinates": [ -82.308673, 23.081464 ] } },
{ "type": "Feature", "properties": { "id": "01a0b893-9647-773c-87f5-2e91fd9e846b", "codpa_code": "23.09", "name": "Diez de Octubre", "level": "municipality", "province_code": "23", "province_name": "La Habana", "gns_id": "14594034", "geonames_id": "11288071", "overture_id": "be5757d7-2c82-4c80-9e11-9ca7613cfe8c", "lat": 23.095764, "lon": -82.360747 }, "geometry": { "type": "Point", "coordinates": [ -82.360747, 23.095764 ] } },
{ "type": "Feature", "properties": { "id": "01a0b893-9647-773c-87f5-2e9250fa4ef1", "codpa_code": "23.10", "name": "Cerro", "level": "municipality", "province_code": "23", "province_name": "La Habana", "gns_id": "14594035", "geonames_id": "11288069", "overture_id": "a2e4aa97-27ae-478d-805b-c88554898a93", "lat": 23.101403, "lon": -82.385233 }, "geometry": { "type": "Point", "coordinates": [ -82.385233, 23.101403 ] } },
{ "type": "Feature", "properties": { "id": "01a0b893-9647-773c-87f5-2e93536a86f2", "codpa_code": "23.11", "name": "Marianao", "level": "municipality", "province_code": "23", "province_name": "La Habana", "gns_id": "-1634608", "geonames_id": "3547639", "overture_id": "1a3a3dfb-0d3a-42bf-b8be-1def3c699a8b", "lat": 23.066832, "lon": -82.422275 }, "geometry": { "type": "Point", "coordinates": [ -82.422275, 23.066832 ] } },
{ "type": "Feature", "properties": { "id": "01a0b893-9647-773c-87f5-2e9449f033ee", "codpa_code": "23.12", "name": "La Lisa", "level": "municipality", "province_code": "23", "province_name": "La Habana", "gns_id": "14594031", "geonames_id": "11288074", "overture_id": "26be6029-feee-468c-a180-d46168b9c986", "lat": 23.03094, "lon": -82.469546 }, "geometry": { "type": "Point", "coordinates": [ -82.469546, 23.03094 ] } },
{ "type": "Feature", "properties": { "id": "01a0b893-9647-773c-87f5-2e952ea520ed", "codpa_code": "23.13", "name": "Boyeros", "level": "municipality", "province_code": "23", "province_name": "La Habana", "gns_id": "-1645549", "geonames_id": "11288067", "overture_id": "27d1cd7c-440b-41f6-8d9a-57728b0773ae", "lat": 22.995311, "lon": -82.396231 }, "geometry": { "type": "Point", "coordinates": [ -82.396231, 22.995311 ] } },
{ "type": "Feature", "properties": { "id": "01a0b893-9647-773c-87f5-2e969d69cae0", "codpa_code": "23.14", "name": "Arroyo Naranjo", "level": "municipality", "province_code": "23", "province_name": "La Habana", "gns_id": "14594023", "geonames_id": "11288065", "overture_id": "d13d9763-a800-4154-9b68-2dabe6538081", "lat": 23.020173, "lon": -82.322791 }, "geometry": { "type": "Point", "coordinates": [ -82.322791, 23.020173 ] } },
{ "type": "Feature", "properties": { "id": "01a0b893-9647-773c-87f5-2e97bfb437e2", "codpa_code": "23.15", "name": "Cotorro", "level": "municipality", "province_code": "23", "province_name": "La Habana", "gns_id": "14594024", "geonames_id": "11288070", "overture_id": "942b706a-216b-4e1c-85d3-8b2d119260ef", "lat": 23.024577, "lon": -82.261494 }, "geometry": { "type": "Point", "coordinates": [ -82.261494, 23.024577 ] } },
{ "type": "Feature", "properties": { "id": "01a0b893-9647-773c-87f5-2e98352148f8", "codpa_code": "24", "name": "Mayabeque", "level": "province", "province_code": "24", "province_name": "Mayabeque", "gns_id": "11135091", "geonames_id": "7668827", "overture_id": "af13212e-8a69-4108-b26c-6801f509bd10", "lat": 22.866667, "lon": -82.0 }, "geometry": { "type": "Point", "coordinates": [ -82.0, 22.866667 ] } },
{ "type": "Feature", "properties": { "id": "01a0b893-9647-773c-87f5-2e99022bc6c8", "codpa_code": "24.01", "name": "Bejucal", "level": "municipality", "province_code": "24", "province_name": "Mayabeque", "gns_id": "-1614637", "geonames_id": "3567544", "overture_id": "b3bf88b7-3187-4e3d-9853-1ab2ec7ae73e", "lat": 22.912436, "lon": -82.343955 }, "geometry": { "type": "Point", "coordinates": [ -82.343955, 22.912436 ] } },
{ "type": "Feature", "properties": { "id": "01a0b893-9647-773c-87f5-2e9a7793c70d", "codpa_code": "24.02", "name": "San José de las Lajas", "level": "municipality", "province_code": "24", "province_name": "Mayabeque", "gns_id": "-1642703", "geonames_id": "3539559", "overture_id": "2224cdf4-0c76-4d48-bf78-e8159c922c55", "lat": 22.936508, "lon": -82.152288 }, "geometry": { "type": "Point", "coordinates": [ -82.152288, 22.936508 ] } },
{ "type": "Feature", "properties": { "id": "01a0b893-9647-773c-87f5-2e9b5987945a", "codpa_code": "24.03", "name": "Jaruco", "level": "municipality", "province_code": "24", "province_name": "Mayabeque", "gns_id": "-1625873", "geonames_id": "3556347", "overture_id": "648ebf34-3930-4288-8d0e-142715e2bd5d", "lat": 23.06156808, "lon": -82.00222527 }, "geometry": { "type": "Point", "coordinates": [ -82.00222527, 23.06156808 ] } },
{ "type": "Feature", "properties": { "id": "01a0b893-9647-773c-87f5-2e9c745b70c8", "codpa_code": "24.04", "name": "Santa Cruz del Norte", "level": "municipality", "province_code": "24", "province_name": "Mayabeque", "gns_id": "-1644426", "geonames_id": "3537843", "overture_id": "8d78d967-42e0-4210-b778-7871f3552671", "lat": 23.110638, "lon": -81.847538 }, "geometry": { "type": "Point", "coordinates": [ -81.847538, 23.110638 ] } },
{ "type": "Feature", "properties": { "id": "01a0b893-9647-773c-87f5-2e9d4f77f141", "codpa_code": "24.05", "name": "Madruga", "level": "municipality", "province_code": "24", "province_name": "Mayabeque", "gns_id": "-1633710", "geonames_id": "3548528", "overture_id": "2e3ba432-6b61-4e0c-ad80-90e6d99caebc", "lat": 22.94708, "lon": -81.815814 }, "geometry": { "type": "Point", "coordinates": [ -81.815814, 22.94708 ] } },
{ "type": "Feature", "properties": { "id": "01a0b893-9647-773c-87f5-2e9e1a444751", "codpa_code": "24.06", "name": "Nueva Paz", "level": "municipality", "province_code": "24", "province_name": "Mayabeque", "gns_id": "-1636397", "geonames_id": "3545853", "overture_id": "34eb2b80-4647-4483-b8bb-78c26bb8cf06", "lat": 22.719768, "lon": -81.724384 }, "geometry": { "type": "Point", "coordinates": [ -81.724384, 22.719768 ] } },
{ "type": "Feature", "properties": { "id": "01a0b893-9647-773c-87f5-2e9fc11579c6", "codpa_code": "24.07", "name": "San Nicolás", "level": "municipality", "province_code": "24", "province_name": "Mayabeque", "gns_id": "-1643517", "geonames_id": "3538748", "overture_id": "eab07f83-8d0b-4a83-8210-4e03233581d6", "lat": 22.753883, "lon": -81.897154 }, "geometry": { "type": "Point", "coordinates": [ -81.897154, 22.753883 ] } },
{ "type": "Feature", "properties": { "id": "01a0b893-9647-773c-87f5-2ea0ba8613ea", "codpa_code": "24.08", "name": "Güines", "level": "municipality", "province_code": "24", "province_name": "Mayabeque", "gns_id": "-1624838", "geonames_id": "3557376", "overture_id": "496c8b27-f729-4e79-9ebd-0adaece9cd75", "lat": 22.803766, "lon": -82.003873 }, "geometry": { "type": "Point", "coordinates": [ -82.003873, 22.803766 ] } },
{ "type": "Feature", "properties": { "id": "01a0b893-9647-773c-87f5-2ea124152d21", "codpa_code": "24.09", "name": "Melena del Sur", "level": "municipality", "province_code": "24", "province_name": "Mayabeque", "gns_id": "-1635068", "geonames_id": "3547180", "overture_id": "07cdcc92-55ef-4b53-83a4-3de7f165954f", "lat": 22.768097, "lon": -82.144262 }, "geometry": { "type": "Point", "coordinates": [ -82.144262, 22.768097 ] } },
{ "type": "Feature", "properties": { "id": "01a0b893-9647-773c-87f5-2ea21a169ca3", "codpa_code": "24.10", "name": "Batabanó", "level": "municipality", "province_code": "24", "province_name": "Mayabeque", "gns_id": "-1614528", "geonames_id": "3567653", "overture_id": "b267d0d1-b74a-43af-a735-6d5a9c7ce8fc", "lat": 22.733109, "lon": -82.29408 }, "geometry": { "type": "Point", "coordinates": [ -82.29408, 22.733109 ] } },
{ "type": "Feature", "properties": { "id": "01a0b893-9647-773c-87f5-2ea3d5edc4ca", "codpa_code": "24.11", "name": "Quivicán", "level": "municipality", "province_code": "24", "province_name": "Mayabeque", "gns_id": "-1639291", "geonames_id": "3542963", "overture_id": "60e132a0-ff83-4e14-9017-23643110dea9", "lat": 22.818503, "lon": -82.386108 }, "geometry": { "type": "Point", "coordinates": [ -82.386108, 22.818503 ] } },
{ "type": "Feature", "properties": { "id": "01a0b893-9647-773c-87f5-2ea4ebf03ae8", "codpa_code": "25", "name": "Matanzas", "level": "province", "province_code": "25", "province_name": "Matanzas", "gns_id": "-1634853", "geonames_id": "3547394", "overture_id": "ce65ca4f-2a2f-4c5e-b030-38e524457279", "lat": 22.666667, "lon": -81.166667 }, "geometry": { "type": "Point", "coordinates": [ -81.166667, 22.666667 ] } },
{ "type": "Feature", "properties": { "id": "01a0b893-9647-773c-87f5-2ea56f4d1b6b", "codpa_code": "25.01", "name": "Matanzas", "level": "municipality", "province_code": "25", "province_name": "Matanzas", "gns_id": "-1634852", "geonames_id": "3547395", "overture_id": "36cc3133-c6fe-42b6-8078-e613dc972bf0", "lat": 23.07504, "lon": -81.579156 }, "geometry": { "type": "Point", "coordinates": [ -81.579156, 23.07504 ] } },
{ "type": "Feature", "properties": { "id": "01a0b893-9647-773c-87f5-2ea6e60b50d3", "codpa_code": "25.02", "name": "Cárdenas", "level": "municipality", "province_code": "25", "province_name": "Matanzas", "gns_id": "-1616757", "geonames_id": "3565430", "overture_id": "dd648c1e-8b8b-4643-8ebc-1ae3fad5ba2e", "lat": 23.01623266, "lon": -81.23580973 }, "geometry": { "type": "Point", "coordinates": [ -81.23580973, 23.01623266 ] } },
{ "type": "Feature", "properties": { "id": "01a0b893-9647-773c-87f5-2ea7e98c0302", "codpa_code": "25.03", "name": "Martí", "level": "municipality", "province_code": "25", "province_name": "Matanzas", "gns_id": "-1634730", "geonames_id": "3547517", "overture_id": "974c34ea-c238-440c-b088-552c56673f90", "lat": 22.983139, "lon": -80.85664 }, "geometry": { "type": "Point", "coordinates": [ -80.85664, 22.983139 ] } },
{ "type": "Feature", "properties": { "id": "01a0b893-9647-773c-87f5-2ea83ca142c6", "codpa_code": "25.04", "name": "Colón", "level": "municipality", "province_code": "25", "province_name": "Matanzas", "gns_id": "-1618356", "geonames_id": "3563841", "overture_id": "01031c65-a300-4221-ab5f-81b41d62b61a", "lat": 22.748502, "lon": -80.877865 }, "geometry": { "type": "Point", "coordinates": [ -80.877865, 22.748502 ] } },
{ "type": "Feature", "properties": { "id": "01a0b893-9647-773c-87f5-2ea945b755e2", "codpa_code": "25.05", "name": "Perico", "level": "municipality", "province_code": "25", "province_name": "Matanzas", "gns_id": "-1637861", "geonames_id": "3544391", "overture_id": "4af530ae-25e2-4f18-a8b2-e2660d334dbd", "lat": 22.83673, "lon": -81.029939 }, "geometry": { "type": "Point", "coordinates": [ -81.029939, 22.83673 ] } },
{ "type": "Feature", "properties": { "id": "01a0b893-9647-773c-87f5-2eaaa21cbe26", "codpa_code": "25.06", "name": "Jovellanos", "level": "municipality", "province_code": "25", "province_name": "Matanzas", "gns_id": "-1626319", "geonames_id": "3555906", "overture_id": "47f94a87-dc17-4d75-ae17-99bc7adf3978", "lat": 22.83619, "lon": -81.22740091 }, "geometry": { "type": "Point", "coordinates": [ -81.22740091, 22.83619 ] } },
{ "type": "Feature", "properties": { "id": "01a0b893-9647-773c-87f5-2eab298cd800", "codpa_code": "25.07", "name": "Pedro Betancourt", "level": "municipality", "province_code": "25", "province_name": "Matanzas", "gns_id": "-1637646", "geonames_id": "3544606", "overture_id": "6be2396f-b222-4d6b-880e-017c2c176495", "lat": 22.78385, "lon": -81.42701 }, "geometry": { "type": "Point", "coordinates": [ -81.42701, 22.78385 ] } },
{ "type": "Feature", "properties": { "id": "01a0b893-9647-773c-87f5-2eac04c8f2bd", "codpa_code": "25.08", "name": "Limonar", "level": "municipality", "province_code": "25", "province_name": "Matanzas", "gns_id": "-1632396", "geonames_id": "3549839", "overture_id": "9e9d92fa-b0ee-4ab9-aec5-148b73859013", "lat": 22.94257271, "lon": -81.47280181000001 }, "geometry": { "type": "Point", "coordinates": [ -81.47280181, 22.94257271 ] } },
{ "type": "Feature", "properties": { "id": "01a0b893-9647-773c-87f5-2ead2d017fd8", "codpa_code": "25.09", "name": "Unión de Reyes", "level": "municipality", "province_code": "25", "province_name": "Matanzas", "gns_id": "-1647516", "geonames_id": "3534760", "overture_id": "1fca042a-40d7-4da8-93fb-3fefe4455862", "lat": 22.72769, "lon": -81.539705 }, "geometry": { "type": "Point", "coordinates": [ -81.539705, 22.72769 ] } },
{ "type": "Feature", "properties": { "id": "01a0b893-9647-773c-87f5-2eaec6caaf2e", "codpa_code": "25.10", "name": "Ciénaga de Zapata", "level": "municipality", "province_code": "25", "province_name": "Matanzas", "gns_id": "14593940", "geonames_id": "11288078", "overture_id": "74a10756-fdfc-42b9-95d4-1b5986a7a63c", "lat": 22.313065, "lon": -81.413178 }, "geometry": { "type": "Point", "coordinates": [ -81.413178, 22.313065 ] } },
{ "type": "Feature", "properties": { "id": "01a0b893-9647-773c-87f5-2eaf340a4803", "codpa_code": "25.11", "name": "Jagüey Grande", "level": "municipality", "province_code": "25", "province_name": "Matanzas", "gns_id": "-1625782", "geonames_id": "3556436", "overture_id": "ddcb6728-8da6-47f4-974f-c53418226698", "lat": 22.58886968, "lon": -81.12204686 }, "geometry": { "type": "Point", "coordinates": [ -81.12204686, 22.58886968 ] } },
{ "type": "Feature", "properties": { "id": "01a0b893-9647-773c-87f5-2eb0158d667a", "codpa_code": "25.12", "name": "Calimete", "level": "municipality", "province_code": "25", "province_name": "Matanzas", "gns_id": "14593938", "geonames_id": "11288077", "overture_id": "5b30ea41-4896-4b76-99d3-94613b289326", "lat": 22.43670539, "lon": -80.94997844 }, "geometry": { "type": "Point", "coordinates": [ -80.94997844, 22.43670539 ] } },
{ "type": "Feature", "properties": { "id": "01a0b893-9647-773c-87f5-2eb1bf6b1f4d", "codpa_code": "25.13", "name": "Los Arabos", "level": "municipality", "province_code": "25", "province_name": "Matanzas", "gns_id": "-1632774", "geonames_id": "3549462", "overture_id": "6bcb0096-16fb-4353-aad5-b57e3669bf81", "lat": 22.640895, "lon": -80.656981 }, "geometry": { "type": "Point", "coordinates": [ -80.656981, 22.640895 ] } },
{ "type": "Feature", "properties": { "id": "01a0b893-9647-773c-87f5-2eb266ca2b2d", "codpa_code": "26", "name": "Villa Clara", "level": "province", "province_code": "26", "province_name": "Villa Clara", "gns_id": "-1648108", "geonames_id": "3534168", "overture_id": "a4b0787a-6b51-409f-817d-3cf32f0e2147", "lat": 22.566667, "lon": -80.0 }, "geometry": { "type": "Point", "coordinates": [ -80.0, 22.566667 ] } },
{ "type": "Feature", "properties": { "id": "01a0b893-9647-773c-87f5-2eb3d533defb", "codpa_code": "26.01", "name": "Corralillo", "level": "municipality", "province_code": "26", "province_name": "Villa Clara", "gns_id": "-1618885", "geonames_id": "3563312", "overture_id": "8204ef43-34e9-4234-acf4-4cb254f72ee7", "lat": 22.886941, "lon": -80.535902 }, "geometry": { "type": "Point", "coordinates": [ -80.535902, 22.886941 ] } },
{ "type": "Feature", "properties": { "id": "01a0b893-9647-773c-87f5-2eb4b574c298", "codpa_code": "26.02", "name": "Quemado de Güines", "level": "municipality", "province_code": "26", "province_name": "Villa Clara", "gns_id": "-1639178", "geonames_id": "3543076", "overture_id": "4595f15e-2c22-4c23-ae90-342472d68c59", "lat": 22.802271, "lon": -80.282556 }, "geometry": { "type": "Point", "coordinates": [ -80.282556, 22.802271 ] } },
{ "type": "Feature", "properties": { "id": "01a0b893-9647-773c-87f5-2eb523878f12", "codpa_code": "26.03", "name": "Sagua la Grande", "level": "municipality", "province_code": "26", "province_name": "Villa Clara", "gns_id": "-1640821", "geonames_id": "3541437", "overture_id": "1ea7df95-f513-4a03-b54e-512bb13b5239", "lat": 22.835573, "lon": -80.085899 }, "geometry": { "type": "Point", "coordinates": [ -80.085899, 22.835573 ] } },
{ "type": "Feature", "properties": { "id": "01a0b893-9647-773c-87f5-2eb6b67d6705", "codpa_code": "26.04", "name": "Encrucijada", "level": "municipality", "province_code": "26", "province_name": "Villa Clara", "gns_id": "-1622792", "geonames_id": "3559414", "overture_id": "7a75b8af-1e80-4d7f-ab2d-f092314055c3", "lat": 22.691495, "lon": -79.823623 }, "geometry": { "type": "Point", "coordinates": [ -79.823623, 22.691495 ] } },
{ "type": "Feature", "properties": { "id": "01a0b893-9647-773c-87f5-2eb771f869e3", "codpa_code": "26.05", "name": "Camajuaní", "level": "municipality", "province_code": "26", "province_name": "Villa Clara", "gns_id": "-1616133", "geonames_id": "3566053", "overture_id": "64e4607b-e9e5-4974-8773-4362d98eb51b", "lat": 22.515927, "lon": -79.708466 }, "geometry": { "type": "Point", "coordinates": [ -79.708466, 22.515927 ] } },
{ "type": "Feature", "properties": { "id": "01a0b893-9647-773c-87f5-2eb8ee7ef77a", "codpa_code": "26.06", "name": "Caibarién", "level": "municipality", "province_code": "26", "province_name": "Villa Clara", "gns_id": "-1615832", "geonames_id": "3566354", "overture_id": "9e9eb85c-335e-4f64-b00c-3c2e0f26daad", "lat": 22.478911, "lon": -79.459589 }, "geometry": { "type": "Point", "coordinates": [ -79.459589, 22.478911 ] } },
{ "type": "Feature", "properties": { "id": "01a0b893-9647-773c-87f5-2eb9b1d9c2cb", "codpa_code": "26.07", "name": "Remedios", "level": "municipality", "province_code": "26", "province_name": "Villa Clara", "gns_id": "-1642978", "geonames_id": "3539285", "overture_id": "b24fe9ac-fadf-4ee5-9107-ae703740ef24", "lat": 22.380441, "lon": -79.499496 }, "geometry": { "type": "Point", "coordinates": [ -79.499496, 22.380441 ] } },
{ "type": "Feature", "properties": { "id": "01a0b893-9647-773c-87f5-2eba39f34135", "codpa_code": "26.08", "name": "Placetas", "level": "municipality", "province_code": "26", "province_name": "Villa Clara", "gns_id": "-1638293", "geonames_id": "3543960", "overture_id": "a65d7d95-32cc-4193-b8c4-678579337c22", "lat": 22.27024, "lon": -79.671946 }, "geometry": { "type": "Point", "coordinates": [ -79.671946, 22.27024 ] } },
{ "type": "Feature", "properties": { "id": "01a0b893-9647-773c-87f5-2ebbb7547481", "codpa_code": "26.09", "name": "Santa Clara", "level": "municipality", "province_code": "26", "province_name": "Villa Clara", "gns_id": "-1644378", "geonames_id": "3537891", "overture_id": "04fa7235-2d57-48e2-aebe-faf995c80f6c", "lat": 22.421907, "lon": -79.92023 }, "geometry": { "type": "Point", "coordinates": [ -79.92023, 22.421907 ] } },
{ "type": "Feature", "properties": { "id": "01a0b893-9647-773c-87f5-2ebc01cd7771", "codpa_code": "26.10", "name": "Cifuentes", "level": "municipality", "province_code": "26", "province_name": "Villa Clara", "gns_id": "-1618080", "geonames_id": "3564113", "overture_id": "0d410d24-81bb-456b-baee-59f9785c92b8", "lat": 22.626323, "lon": -80.031164 }, "geometry": { "type": "Point", "coordinates": [ -80.031164, 22.626323 ] } },
{ "type": "Feature", "properties": { "id": "01a0b893-9647-773c-87f5-2ebd968bfe35", "codpa_code": "26.11", "name": "Santo Domingo", "level": "municipality", "province_code": "26", "province_name": "Villa Clara", "gns_id": "-1645643", "geonames_id": "3536629", "overture_id": "c538485d-4c49-4141-a8cb-b13197c90122", "lat": 22.643814, "lon": -80.356161 }, "geometry": { "type": "Point", "coordinates": [ -80.356161, 22.643814 ] } },
{ "type": "Feature", "properties": { "id": "01a0b893-9647-773c-87f5-2ebe3f43e25e", "codpa_code": "26.12", "name": "Ranchuelo", "level": "municipality", "province_code": "26", "province_name": "Villa Clara", "gns_id": "-1639513", "geonames_id": "3542741", "overture_id": "ea691105-50b3-409d-ad6d-1f3f8b4a5fae", "lat": 22.405816, "lon": -80.12592 }, "geometry": { "type": "Point", "coordinates": [ -80.12592, 22.405816 ] } },
{ "type": "Feature", "properties": { "id": "01a0b893-9647-773c-87f5-2ebf8d43bc3c", "codpa_code": "26.13", "name": "Manicaragua", "level": "municipality", "province_code": "26", "province_name": "Villa Clara", "gns_id": "14593930", "geonames_id": "11288248", "overture_id": "6e45e289-c110-4923-a546-f0e66555d42f", "lat": 22.13665, "lon": -79.938953 }, "geometry": { "type": "Point", "coordinates": [ -79.938953, 22.13665 ] } },
{ "type": "Feature", "properties": { "id": "01a0b893-9647-773c-87f5-2ec0bf575200", "codpa_code": "27", "name": "Cienfuegos", "level": "province", "province_code": "27", "province_name": "Cienfuegos", "gns_id": "-1618073", "geonames_id": "3564120", "overture_id": "5d348179-62ee-4af0-b631-f5740754cf6b", "lat": 22.266667, "lon": -80.45 }, "geometry": { "type": "Point", "coordinates": [ -80.45, 22.266667 ] } },
{ "type": "Feature", "properties": { "id": "01a0b893-9647-773c-87f5-2ec1063f5ae0", "codpa_code": "27.01", "name": "Aguada de Pasajeros", "level": "municipality", "province_code": "27", "province_name": "Cienfuegos", "gns_id": "-1612628", "geonames_id": "3569544", "overture_id": "4004a2ae-24fb-499b-a418-3f172183b204", "lat": 22.353447, "lon": -80.800272 }, "geometry": { "type": "Point", "coordinates": [ -80.800272, 22.353447 ] } },
{ "type": "Feature", "properties": { "id": "01a0b893-9647-773c-87f5-2ec229abf6f3", "codpa_code": "27.02", "name": "Rodas", "level": "municipality", "province_code": "27", "province_name": "Cienfuegos", "gns_id": "-1640257", "geonames_id": "3541997", "overture_id": "d18b8dd3-6a70-4645-a3fe-44a3e7612c5c", "lat": 22.39845144, "lon": -80.54741409 }, "geometry": { "type": "Point", "coordinates": [ -80.54741409, 22.39845144 ] } },
{ "type": "Feature", "properties": { "id": "01a0b893-9647-773c-87f5-2ec38874a488", "codpa_code": "27.03", "name": "Palmira", "level": "municipality", "province_code": "27", "province_name": "Cienfuegos", "gns_id": "-1637215", "geonames_id": "3545037", "overture_id": "3f068719-9514-4bf2-9bea-f3225270a680", "lat": 22.285489, "lon": -80.380037 }, "geometry": { "type": "Point", "coordinates": [ -80.380037, 22.285489 ] } },
{ "type": "Feature", "properties": { "id": "01a0b893-9647-773c-87f5-2ec4688641bc", "codpa_code": "27.04", "name": "Lajas", "level": "municipality", "province_code": "27", "province_name": "Cienfuegos", "gns_id": "-1644746", "geonames_id": "3537524", "overture_id": "1794b5e5-4027-42e0-88c0-b153941dd6d6", "lat": 22.44996, "lon": -80.325761 }, "geometry": { "type": "Point", "coordinates": [ -80.325761, 22.44996 ] } },
{ "type": "Feature", "properties": { "id": "01a0b893-9647-773c-87f5-2ec556a74c76", "codpa_code": "27.05", "name": "Cruces", "level": "municipality", "province_code": "27", "province_name": "Cienfuegos", "gns_id": "-1619055", "geonames_id": "3563143", "overture_id": "64dfdad1-d986-4a52-b48f-c52f7fc34121", "lat": 22.295433, "lon": -80.219114 }, "geometry": { "type": "Point", "coordinates": [ -80.219114, 22.295433 ] } },
{ "type": "Feature", "properties": { "id": "01a0b893-9647-773c-87f5-2ec6eec291fd", "codpa_code": "27.06", "name": "Cumanayagua", "level": "municipality", "province_code": "27", "province_name": "Cienfuegos", "gns_id": "14593769", "geonames_id": "11288191", "overture_id": "d9b2e5d6-aaa2-49dc-b495-aef9fddf74bf", "lat": 22.03503, "lon": -80.195482 }, "geometry": { "type": "Point", "coordinates": [ -80.195482, 22.03503 ] } },
{ "type": "Feature", "properties": { "id": "01a0b893-9647-773c-87f5-2ec72ba1e6ff", "codpa_code": "27.07", "name": "Cienfuegos", "level": "municipality", "province_code": "27", "province_name": "Cienfuegos", "gns_id": "-1618072", "geonames_id": "3564121", "overture_id": "6519d49d-936d-4795-b144-87c8dae08a61", "lat": 22.135777, "lon": -80.409749 }, "geometry": { "type": "Point", "coordinates": [ -80.409749, 22.135777 ] } },
{ "type": "Feature", "properties": { "id": "01a0b893-9647-773c-87f5-2ec870b7e543", "codpa_code": "27.08", "name": "Abreus", "level": "municipality", "province_code": "27", "province_name": "Cienfuegos", "gns_id": "-1612430", "geonames_id": "3569740", "overture_id": "78e4dec3-3d99-4b5f-87f1-b3b490b7de8f", "lat": 22.208657, "lon": -80.656484 }, "geometry": { "type": "Point", "coordinates": [ -80.656484, 22.208657 ] } },
{ "type": "Feature", "properties": { "id": "01a0b893-9647-773c-87f5-2ec9c5438857", "codpa_code": "28", "name": "Sancti Spíritus", "level": "province", "province_code": "28", "province_name": "Sancti Spíritus", "gns_id": "-1641596", "geonames_id": "3540665", "overture_id": "55298194-a5ac-4f62-a6b9-37413097df84", "lat": 21.916667, "lon": -79.416667 }, "geometry": { "type": "Point", "coordinates": [ -79.416667, 21.916667 ] } },
{ "type": "Feature", "properties": { "id": "01a0b893-9647-773c-87f5-2ecae65edd90", "codpa_code": "28.01", "name": "Yaguajay", "level": "municipality", "province_code": "28", "province_name": "Sancti Spíritus", "gns_id": "-1648455", "geonames_id": "3533822", "overture_id": "3beba8b0-faad-486c-9637-e2d743895764", "lat": 22.283167, "lon": -79.165238 }, "geometry": { "type": "Point", "coordinates": [ -79.165238, 22.283167 ] } },
{ "type": "Feature", "properties": { "id": "01a0b893-9647-773c-87f5-2ecb90e4a388", "codpa_code": "28.02", "name": "Jatibonico", "level": "municipality", "province_code": "28", "province_name": "Sancti Spíritus", "gns_id": "-1625887", "geonames_id": "3556333", "overture_id": "ebdf88da-e9e0-4f0b-94b1-93fab1774787", "lat": 21.93962363, "lon": -79.12752582 }, "geometry": { "type": "Point", "coordinates": [ -79.12752582, 21.93962363 ] } },
{ "type": "Feature", "properties": { "id": "01a0b893-9647-773c-87f5-2ecc4b1ab610", "codpa_code": "28.03", "name": "Taguasco", "level": "municipality", "province_code": "28", "province_name": "Sancti Spíritus", "gns_id": "14593935", "geonames_id": "11288242", "overture_id": "3e0ea895-3735-470d-bb0a-98d3d9de845f", "lat": 22.052355, "lon": -79.281135 }, "geometry": { "type": "Point", "coordinates": [ -79.281135, 22.052355 ] } },
{ "type": "Feature", "properties": { "id": "01a0b893-9647-773c-87f5-2ecd4959b59e", "codpa_code": "28.04", "name": "Cabaiguán", "level": "municipality", "province_code": "28", "province_name": "Sancti Spíritus", "gns_id": "-1615581", "geonames_id": "3566602", "overture_id": "77d3d7d0-be2a-47fb-b728-518cbb7ffa81", "lat": 22.118294, "lon": -79.477653 }, "geometry": { "type": "Point", "coordinates": [ -79.477653, 22.118294 ] } },
{ "type": "Feature", "properties": { "id": "01a0b893-9647-773c-87f5-2ecec622eb3a", "codpa_code": "28.05", "name": "Fomento", "level": "municipality", "province_code": "28", "province_name": "Sancti Spíritus", "gns_id": "-1623464", "geonames_id": "3558742", "overture_id": "df1bdb2c-d020-400c-a32d-7022581d8c6d", "lat": 22.051437, "lon": -79.691442 }, "geometry": { "type": "Point", "coordinates": [ -79.691442, 22.051437 ] } },
{ "type": "Feature", "properties": { "id": "01a0b893-9647-773c-87f5-2ecfc726161b", "codpa_code": "28.06", "name": "Trinidad", "level": "municipality", "province_code": "28", "province_name": "Sancti Spíritus", "gns_id": "-1647368", "geonames_id": "3534905", "overture_id": "bae10868-6d98-4431-9427-5b67b1fde902", "lat": 21.851007, "lon": -79.857568 }, "geometry": { "type": "Point", "coordinates": [ -79.857568, 21.851007 ] } },
{ "type": "Feature", "properties": { "id": "01a0b893-9647-773c-87f5-2ed02f93a3f7", "codpa_code": "28.07", "name": "Sancti Spíritus", "level": "municipality", "province_code": "28", "province_name": "Sancti Spíritus", "gns_id": "-1641595", "geonames_id": "3540666", "overture_id": "e1f59dfd-c09a-4633-b6fe-863b9caed1d4", "lat": 21.833508, "lon": -79.493044 }, "geometry": { "type": "Point", "coordinates": [ -79.493044, 21.833508 ] } },
{ "type": "Feature", "properties": { "id": "01a0b893-9647-773c-87f5-2ed1793f3e05", "codpa_code": "28.08", "name": "La Sierpe", "level": "municipality", "province_code": "28", "province_name": "Sancti Spíritus", "gns_id": "14593936", "geonames_id": "11288241", "overture_id": "7cda1fed-23f2-48f1-9391-21415ecab029", "lat": 21.673976, "lon": -79.240396 }, "geometry": { "type": "Point", "coordinates": [ -79.240396, 21.673976 ] } },
{ "type": "Feature", "properties": { "id": "01a0b893-9647-773c-87f5-2ed229f8d85c", "codpa_code": "29", "name": "Ciego de Ávila", "level": "province", "province_code": "29", "province_name": "Ciego de Ávila", "gns_id": "-1618017", "geonames_id": "3564175", "overture_id": "714afea2-1564-488d-abfb-609b5d9f8f2c", "lat": 21.966667, "lon": -78.633333 }, "geometry": { "type": "Point", "coordinates": [ -78.633333, 21.966667 ] } },
{ "type": "Feature", "properties": { "id": "01a0b893-9647-773c-87f5-2ed30032f6e2", "codpa_code": "29.01", "name": "Chambas", "level": "municipality", "province_code": "29", "province_name": "Ciego de Ávila", "gns_id": "14593963", "geonames_id": "11287709", "overture_id": "dc2b3196-66d2-4625-b9d7-71b45e0ea77e", "lat": 22.241373, "lon": -78.842131 }, "geometry": { "type": "Point", "coordinates": [ -78.842131, 22.241373 ] } },
{ "type": "Feature", "properties": { "id": "01a0b893-9647-773c-87f5-2ed4477dfc7f", "codpa_code": "29.02", "name": "Morón", "level": "municipality", "province_code": "29", "province_name": "Ciego de Ávila", "gns_id": "-1635816", "geonames_id": "3546433", "overture_id": "4110f734-b1dd-47e5-bc10-8d7ce90e024f", "lat": 22.19884415, "lon": -78.61128785 }, "geometry": { "type": "Point", "coordinates": [ -78.61128785, 22.19884415 ] } },
{ "type": "Feature", "properties": { "id": "01a0b893-9647-773c-87f5-2ed58e088a8d", "codpa_code": "29.03", "name": "Bolivia", "level": "municipality", "province_code": "29", "province_name": "Ciego de Ávila", "gns_id": "14593965", "geonames_id": "11288185", "overture_id": "3a5ddcd1-b2f3-4b1a-b451-bf80fd068e99", "lat": 22.082539, "lon": -78.329983 }, "geometry": { "type": "Point", "coordinates": [ -78.329983, 22.082539 ] } },
{ "type": "Feature", "properties": { "id": "01a0b893-9647-773c-87f5-2ed607b343f6", "codpa_code": "29.04", "name": "Primero de Enero", "level": "municipality", "province_code": "29", "province_name": "Ciego de Ávila", "gns_id": "14593967", "geonames_id": "11288188", "overture_id": "1cc54cb5-e092-4fe6-b070-ecd5ffa18410", "lat": 21.895762, "lon": -78.365936 }, "geometry": { "type": "Point", "coordinates": [ -78.365936, 21.895762 ] } },
{ "type": "Feature", "properties": { "id": "01a0b893-9647-773c-87f5-2ed76886e494", "codpa_code": "29.05", "name": "Ciro Redondo", "level": "municipality", "province_code": "29", "province_name": "Ciego de Ávila", "gns_id": "14593964", "geonames_id": "11287708", "overture_id": "3baa7021-3579-4328-a4bc-ce4d045045a8", "lat": 22.011734, "lon": -78.672739 }, "geometry": { "type": "Point", "coordinates": [ -78.672739, 22.011734 ] } },
{ "type": "Feature", "properties": { "id": "01a0b893-9647-773c-87f5-2ed8e51866b2", "codpa_code": "29.06", "name": "Florencia", "level": "municipality", "province_code": "29", "province_name": "Ciego de Ávila", "gns_id": "14593942", "geonames_id": "11288186", "overture_id": "cfb16b5f-7f74-4b5d-9c43-066a0a694498", "lat": 22.087888, "lon": -78.933057 }, "geometry": { "type": "Point", "coordinates": [ -78.933057, 22.087888 ] } },
{ "type": "Feature", "properties": { "id": "01a0b893-9647-773c-87f5-2ed96de5ffcb", "codpa_code": "29.07", "name": "Majagua", "level": "municipality", "province_code": "29", "province_name": "Ciego de Ávila", "gns_id": "14593968", "geonames_id": "11288187", "overture_id": "55490cee-46b8-4a38-8920-fdfd45b11443", "lat": 21.866568, "lon": -78.982377 }, "geometry": { "type": "Point", "coordinates": [ -78.982377, 21.866568 ] } },
{ "type": "Feature", "properties": { "id": "01a0b893-9647-773c-87f5-2eda6b460652", "codpa_code": "29.08", "name": "Ciego de Ávila", "level": "municipality", "province_code": "29", "province_name": "Ciego de Ávila", "gns_id": "-1618016", "geonames_id": "3564176", "overture_id": "ebdbebe3-e07c-415e-b6ca-6efa7bbe4b20", "lat": 21.871033, "lon": -78.755123 }, "geometry": { "type": "Point", "coordinates": [ -78.755123, 21.871033 ] } },
{ "type": "Feature", "properties": { "id": "01a0b893-9647-773c-87f5-2edb707eb056", "codpa_code": "29.09", "name": "Venezuela", "level": "municipality", "province_code": "29", "province_name": "Ciego de Ávila", "gns_id": "14593969", "geonames_id": "11288190", "overture_id": "73a54e37-8e6b-425a-bf9c-718938704da5", "lat": 21.706534, "lon": -78.831226 }, "geometry": { "type": "Point", "coordinates": [ -78.831226, 21.706534 ] } },
{ "type": "Feature", "properties": { "id": "01a0b893-9647-773c-87f5-2edc7cb9c244", "codpa_code": "29.10", "name": "Baraguá", "level": "municipality", "province_code": "29", "province_name": "Ciego de Ávila", "gns_id": "14593970", "geonames_id": "11287707", "overture_id": "b7b83359-443e-4f7a-ad7b-1d6d735ab63c", "lat": 21.723371, "lon": -78.530011 }, "geometry": { "type": "Point", "coordinates": [ -78.530011, 21.723371 ] } },
{ "type": "Feature", "properties": { "id": "01a0b893-9647-773c-87f5-2edd5b26b74e", "codpa_code": "30", "name": "Camagüey", "level": "province", "province_code": "30", "province_name": "Camagüey", "gns_id": "-1616124", "geonames_id": "3566062", "overture_id": "486c65be-0727-4392-9c16-289da7260dd8", "lat": 21.35, "lon": -77.85 }, "geometry": { "type": "Point", "coordinates": [ -77.85, 21.35 ] } },
{ "type": "Feature", "properties": { "id": "01a0b893-9647-773c-87f5-2ede096d9146", "codpa_code": "30.01", "name": "Carlos Manuel de Céspedes", "level": "municipality", "province_code": "30", "province_name": "Camagüey", "gns_id": "14593977", "geonames_id": "11288252", "overture_id": "512471a2-3f8d-4b19-b7d0-d845b7a6b3c7", "lat": 21.673477, "lon": -78.26257 }, "geometry": { "type": "Point", "coordinates": [ -78.26257, 21.673477 ] } },
{ "type": "Feature", "properties": { "id": "01a0b893-9647-773c-87f5-2edff54949dc", "codpa_code": "30.02", "name": "Esmeralda", "level": "municipality", "province_code": "30", "province_name": "Camagüey", "gns_id": "-1622890", "geonames_id": "3559316", "overture_id": "b71cf0fb-d119-4f2b-9740-6ef66ff5a949", "lat": 21.835966, "lon": -78.001642 }, "geometry": { "type": "Point", "coordinates": [ -78.001642, 21.835966 ] } },
{ "type": "Feature", "properties": { "id": "01a0b893-9647-773c-87f5-2ee0bc7eebd1", "codpa_code": "30.03", "name": "Sierra de Cubitas", "level": "municipality", "province_code": "30", "province_name": "Camagüey", "gns_id": "14593976", "geonames_id": "11288082", "overture_id": "832d46da-ed26-40b7-94fb-51229f08cb6e", "lat": 21.667478, "lon": -77.767014 }, "geometry": { "type": "Point", "coordinates": [ -77.767014, 21.667478 ] } },
{ "type": "Feature", "properties": { "id": "01a0b893-9647-773c-87f5-2ee10f1530ec", "codpa_code": "30.04", "name": "Minas", "level": "municipality", "province_code": "30", "province_name": "Camagüey", "gns_id": "14593978", "geonames_id": "11288080", "overture_id": "f45a6854-0fc0-4f33-af72-92118522126e", "lat": 21.562768, "lon": -77.543793 }, "geometry": { "type": "Point", "coordinates": [ -77.543793, 21.562768 ] } },
{ "type": "Feature", "properties": { "id": "01a0b893-9647-773c-87f5-2ee2e9bfd958", "codpa_code": "30.05", "name": "Nuevitas", "level": "municipality", "province_code": "30", "province_name": "Camagüey", "gns_id": "-1636412", "geonames_id": "3545838", "overture_id": "784549a7-4e57-4b5f-b344-1b8caa4c413b", "lat": 21.389626, "lon": -77.218009 }, "geometry": { "type": "Point", "coordinates": [ -77.218009, 21.389626 ] } },
{ "type": "Feature", "properties": { "id": "01a0b893-9647-773c-87f5-2ee33a508ea9", "codpa_code": "30.06", "name": "Guáimaro", "level": "municipality", "province_code": "30", "province_name": "Camagüey", "gns_id": "-1624290", "geonames_id": "3557921", "overture_id": "d763e6f6-89de-4733-8d5a-dfb2e404da8e", "lat": 21.162927, "lon": -77.342241 }, "geometry": { "type": "Point", "coordinates": [ -77.342241, 21.162927 ] } },
{ "type": "Feature", "properties": { "id": "01a0b893-9647-773c-87f5-2ee41708e83d", "codpa_code": "30.07", "name": "Sibanicú", "level": "municipality", "province_code": "30", "province_name": "Camagüey", "gns_id": "14593979", "geonames_id": "11288081", "overture_id": "b27e840c-535f-43f5-bc54-63441b6bf99f", "lat": 21.233533, "lon": -77.575423 }, "geometry": { "type": "Point", "coordinates": [ -77.575423, 21.233533 ] } },
{ "type": "Feature", "properties": { "id": "01a0b893-9647-773c-87f5-2ee51f0ca736", "codpa_code": "30.08", "name": "Camagüey", "level": "municipality", "province_code": "30", "province_name": "Camagüey", "gns_id": "-1616123", "geonames_id": "3566063", "overture_id": "cb89a7e6-858e-4297-85d2-dd4cd73f6e83", "lat": 21.433813, "lon": -77.918311 }, "geometry": { "type": "Point", "coordinates": [ -77.918311, 21.433813 ] } },
{ "type": "Feature", "properties": { "id": "01a0b893-9647-773c-87f5-2ee6b5bdf69b", "codpa_code": "30.09", "name": "Florida", "level": "municipality", "province_code": "30", "province_name": "Camagüey", "gns_id": "-1623440", "geonames_id": "3558766", "overture_id": "6042e835-3260-4ab1-89af-e3c58179cce4", "lat": 21.420581, "lon": -78.315858 }, "geometry": { "type": "Point", "coordinates": [ -78.315858, 21.420581 ] } },
{ "type": "Feature", "properties": { "id": "01a0b893-9647-773c-87f5-2ee74b44e2bb", "codpa_code": "30.10", "name": "Vertientes", "level": "municipality", "province_code": "30", "province_name": "Camagüey", "gns_id": "14593981", "geonames_id": "11288083", "overture_id": "f0602282-363b-475e-b529-477be50d64d2", "lat": 21.132725, "lon": -78.247374 }, "geometry": { "type": "Point", "coordinates": [ -78.247374, 21.132725 ] } },
{ "type": "Feature", "properties": { "id": "01a0b893-9647-773c-87f5-2ee89baa7568", "codpa_code": "30.11", "name": "Jimaguayú", "level": "municipality", "province_code": "30", "province_name": "Camagüey", "gns_id": "14593980", "geonames_id": "11288079", "overture_id": "01503894-c16a-4dd6-bd41-6c3054ceac87", "lat": 21.23003734, "lon": -77.84518474 }, "geometry": { "type": "Point", "coordinates": [ -77.84518474, 21.23003734 ] } },
{ "type": "Feature", "properties": { "id": "01a0b893-9647-773c-87f5-2ee9b43d9ca6", "codpa_code": "30.12", "name": "Najasa", "level": "municipality", "province_code": "30", "province_name": "Camagüey", "gns_id": "14593982", "geonames_id": "11288301", "overture_id": "4a858b5d-07a4-424b-a5f6-9b2f0d127923", "lat": 21.027332, "lon": -77.763093 }, "geometry": { "type": "Point", "coordinates": [ -77.763093, 21.027332 ] } },
{ "type": "Feature", "properties": { "id": "01a0b893-9647-773c-87f5-2eeafea4b2d2", "codpa_code": "30.13", "name": "Santa Cruz del Sur", "level": "municipality", "province_code": "30", "province_name": "Camagüey", "gns_id": "-1644430", "geonames_id": "3537839", "overture_id": "d56e6829-8866-4eb3-a300-35d3f6690b37", "lat": 20.859905, "lon": -77.988734 }, "geometry": { "type": "Point", "coordinates": [ -77.988734, 20.859905 ] } },
{ "type": "Feature", "properties": { "id": "01a0b893-9647-773c-87f5-2eebcd7f4635", "codpa_code": "31", "name": "Las Tunas", "level": "province", "province_code": "31", "province_name": "Las Tunas", "gns_id": "-1631638", "geonames_id": "3550595", "overture_id": "cdd99e3e-81fa-4b01-aa7f-753a0daf8985", "lat": 21.0, "lon": -77.0 }, "geometry": { "type": "Point", "coordinates": [ -77.0, 21.0 ] } },
{ "type": "Feature", "properties": { "id": "01a0b893-9647-773c-87f5-2eec9580239a", "codpa_code": "31.01", "name": "Manatí", "level": "municipality", "province_code": "31", "province_name": "Las Tunas", "gns_id": "14593983", "geonames_id": "11287705", "overture_id": "adbb396e-e7ff-4e49-87d1-c855cba6383b", "lat": 21.266701, "lon": -76.979006 }, "geometry": { "type": "Point", "coordinates": [ -76.979006, 21.266701 ] } },
{ "type": "Feature", "properties": { "id": "01a0b893-9647-773c-87f5-2eed935fac22", "codpa_code": "31.02", "name": "Puerto Padre", "level": "municipality", "province_code": "31", "province_name": "Las Tunas", "gns_id": "-1638957", "geonames_id": "3543297", "overture_id": "a5479a02-e643-4a42-bb62-e99a72ed9f53", "lat": 21.181555, "lon": -76.71967 }, "geometry": { "type": "Point", "coordinates": [ -76.71967, 21.181555 ] } },
{ "type": "Feature", "properties": { "id": "01a0b893-9647-773c-87f5-2eeedb3847c4", "codpa_code": "31.03", "name": "Jesús Menéndez", "level": "municipality", "province_code": "31", "province_name": "Las Tunas", "gns_id": "14593984", "geonames_id": "11287706", "overture_id": "74631a36-85ad-47c2-ad4e-9198ffca47ee", "lat": 21.1019213, "lon": -76.47989584 }, "geometry": { "type": "Point", "coordinates": [ -76.47989584, 21.1019213 ] } },
{ "type": "Feature", "properties": { "id": "01a0b893-9647-773c-87f5-2eef708bd0b6", "codpa_code": "31.04", "name": "Majibacoa", "level": "municipality", "province_code": "31", "province_name": "Las Tunas", "gns_id": "14593985", "geonames_id": "11288240", "overture_id": "4d56272d-7c54-42d1-8639-a3e08d6ba98e", "lat": 20.855609, "lon": -76.812777 }, "geometry": { "type": "Point", "coordinates": [ -76.812777, 20.855609 ] } },
{ "type": "Feature", "properties": { "id": "01a0b893-9647-773c-87f5-2ef0e5931013", "codpa_code": "31.05", "name": "Las Tunas", "level": "municipality", "province_code": "31", "province_name": "Las Tunas", "gns_id": "-1631637", "geonames_id": "3550596", "overture_id": "9bc11771-f68a-4c1d-8fd5-76373335fefc", "lat": 20.980423, "lon": -77.035169 }, "geometry": { "type": "Point", "coordinates": [ -77.035169, 20.980423 ] } },
{ "type": "Feature", "properties": { "id": "01a0b893-9647-773c-87f5-2ef1c6e464ab", "codpa_code": "31.06", "name": "Jobabo", "level": "municipality", "province_code": "31", "province_name": "Las Tunas", "gns_id": "14593986", "geonames_id": "11287700", "overture_id": "5cd7113d-a6ea-4cb5-9fd9-06d10ae4ef3c", "lat": 20.87152603, "lon": -77.20666093 }, "geometry": { "type": "Point", "coordinates": [ -77.20666093, 20.87152603 ] } },
{ "type": "Feature", "properties": { "id": "01a0b893-9647-773c-87f5-2ef2d14b644c", "codpa_code": "31.07", "name": "Colombia", "level": "municipality", "province_code": "31", "province_name": "Las Tunas", "gns_id": "14593987", "geonames_id": "11288235", "overture_id": "91c45274-2893-42ae-a171-7d82fdc752d4", "lat": 20.864174, "lon": -77.420736 }, "geometry": { "type": "Point", "coordinates": [ -77.420736, 20.864174 ] } },
{ "type": "Feature", "properties": { "id": "01a0b893-9647-773c-87f5-2ef310bdc6cf", "codpa_code": "31.08", "name": "Amancio", "level": "municipality", "province_code": "31", "province_name": "Las Tunas", "gns_id": "14593988", "geonames_id": "11288234", "overture_id": "47823950-eaa7-435b-8355-f4d8d87d34f3", "lat": 20.806232, "lon": -77.630983 }, "geometry": { "type": "Point", "coordinates": [ -77.630983, 20.806232 ] } },
{ "type": "Feature", "properties": { "id": "01a0b893-9647-773c-87f5-2ef441a7f126", "codpa_code": "32", "name": "Holguín", "level": "province", "province_code": "32", "province_name": "Holguín", "gns_id": "-1625251", "geonames_id": "3556965", "overture_id": "688ae5c9-d884-4a66-90cb-151de8a0ea5b", "lat": 20.75, "lon": -75.916667 }, "geometry": { "type": "Point", "coordinates": [ -75.916667, 20.75 ] } },
{ "type": "Feature", "properties": { "id": "01a0b893-9647-773c-87f5-2ef5b274a2e8", "codpa_code": "32.01", "name": "Gibara", "level": "municipality", "province_code": "32", "province_name": "Holguín", "gns_id": "-1623893", "geonames_id": "3558314", "overture_id": "91e12f7c-d7f0-4d0f-bb55-f3a22cab2d7e", "lat": 21.089207, "lon": -76.278002 }, "geometry": { "type": "Point", "coordinates": [ -76.278002, 21.089207 ] } },
{ "type": "Feature", "properties": { "id": "01a0b893-9647-773c-87f5-2ef634d2145a", "codpa_code": "32.02", "name": "Rafael Freyre", "level": "municipality", "province_code": "32", "province_name": "Holguín", "gns_id": "14594016", "geonames_id": "11288251", "overture_id": "15db7d73-c776-4a1a-a5cd-b5efc90b83cd", "lat": 20.984488, "lon": -76.007511 }, "geometry": { "type": "Point", "coordinates": [ -76.007511, 20.984488 ] } },
{ "type": "Feature", "properties": { "id": "01a0b893-9647-773c-87f5-2ef7f152a1a7", "codpa_code": "32.03", "name": "Banes", "level": "municipality", "province_code": "32", "province_name": "Holguín", "gns_id": "-1614316", "geonames_id": "3567863", "overture_id": "8b2a13e0-5042-475d-9a32-7e1a075eae1e", "lat": 20.964571, "lon": -75.75435 }, "geometry": { "type": "Point", "coordinates": [ -75.75435, 20.964571 ] } },
{ "type": "Feature", "properties": { "id": "01a0b893-9647-773c-87f5-2ef8b1508b4e", "codpa_code": "32.04", "name": "Antilla", "level": "municipality", "province_code": "32", "province_name": "Holguín", "gns_id": "-1613451", "geonames_id": "3568725", "overture_id": "9ab56069-eed4-4751-8ce5-a0bf9567acdc", "lat": 20.847361, "lon": -75.673415 }, "geometry": { "type": "Point", "coordinates": [ -75.673415, 20.847361 ] } },
{ "type": "Feature", "properties": { "id": "01a0b893-9647-773c-87f5-2ef99012ee5e", "codpa_code": "32.05", "name": "Báguanos", "level": "municipality", "province_code": "32", "province_name": "Holguín", "gns_id": "14594015", "geonames_id": "11288230", "overture_id": "1616ce98-adea-4721-ac8b-cb9618a0dbc2", "lat": 20.791546, "lon": -76.038017 }, "geometry": { "type": "Point", "coordinates": [ -76.038017, 20.791546 ] } },
{ "type": "Feature", "properties": { "id": "01a0b893-9647-773c-87f5-2efa0244d0c1", "codpa_code": "32.06", "name": "Holguín", "level": "municipality", "province_code": "32", "province_name": "Holguín", "gns_id": "-1625250", "geonames_id": "3556966", "overture_id": "5a285f97-d931-4e97-ab06-fe379f5499c8", "lat": 20.89941596, "lon": -76.2942441 }, "geometry": { "type": "Point", "coordinates": [ -76.2942441, 20.89941596 ] } },
{ "type": "Feature", "properties": { "id": "01a0b893-9647-773c-87f5-2efb2ead167b", "codpa_code": "32.07", "name": "Calixto García", "level": "municipality", "province_code": "32", "province_name": "Holguín", "gns_id": "14594018", "geonames_id": "9347806", "overture_id": "c358bf40-e923-4f60-bd72-c4b4de8f9044", "lat": 20.855013, "lon": -76.593735 }, "geometry": { "type": "Point", "coordinates": [ -76.593735, 20.855013 ] } },
{ "type": "Feature", "properties": { "id": "01a0b893-9647-773c-87f5-2efcb800cfd6", "codpa_code": "32.08", "name": "Cacocum", "level": "municipality", "province_code": "32", "province_name": "Holguín", "gns_id": "14594017", "geonames_id": "11288231", "overture_id": "33449159-c3e6-4f7b-81a3-bfd269b3fecd", "lat": 20.737256, "lon": -76.439696 }, "geometry": { "type": "Point", "coordinates": [ -76.439696, 20.737256 ] } },
{ "type": "Feature", "properties": { "id": "01a0b893-9647-773c-87f5-2efd18e8c522", "codpa_code": "32.09", "name": "Urbano Noris", "level": "municipality", "province_code": "32", "province_name": "Holguín", "gns_id": "14594014", "geonames_id": "11288250", "overture_id": "95228bfb-8074-4b11-a90b-d53c81d957f6", "lat": 20.597086, "lon": -76.208262 }, "geometry": { "type": "Point", "coordinates": [ -76.208262, 20.597086 ] } },
{ "type": "Feature", "properties": { "id": "01a0b893-9647-773c-87f5-2efe4cb3505c", "codpa_code": "32.10", "name": "Cueto", "level": "municipality", "province_code": "32", "province_name": "Holguín", "gns_id": "14594012", "geonames_id": "11288300", "overture_id": "f2d365e9-4b49-418a-a8b0-d98b863eb13e", "lat": 20.583543, "lon": -75.922742 }, "geometry": { "type": "Point", "coordinates": [ -75.922742, 20.583543 ] } },
{ "type": "Feature", "properties": { "id": "01a0b893-9647-773c-87f5-2eff699d42f2", "codpa_code": "32.11", "name": "Mayarí", "level": "municipality", "province_code": "32", "province_name": "Holguín", "gns_id": "-1634932", "geonames_id": "3547315", "overture_id": "f6f984c5-3a17-4602-8f9c-66b0bd89edd5", "lat": 20.564766, "lon": -75.690383 }, "geometry": { "type": "Point", "coordinates": [ -75.690383, 20.564766 ] } },
{ "type": "Feature", "properties": { "id": "01a0b893-9647-773c-87f5-2f00f2469f29", "codpa_code": "32.12", "name": "Frank País", "level": "municipality", "province_code": "32", "province_name": "Holguín", "gns_id": "14594019", "geonames_id": "11288232", "overture_id": "0463162a-59ba-4a95-999d-8eb44553cf6b", "lat": 20.655106, "lon": -75.36713 }, "geometry": { "type": "Point", "coordinates": [ -75.36713, 20.655106 ] } },
{ "type": "Feature", "properties": { "id": "01a0b893-9647-773c-87f5-2f01053f3626", "codpa_code": "32.13", "name": "Sagua de Tánamo", "level": "municipality", "province_code": "32", "province_name": "Holguín", "gns_id": "-1640814", "geonames_id": "3541444", "overture_id": "a6b0cc32-890b-4e6a-b698-256ff6c15392", "lat": 20.52603, "lon": -75.235693 }, "geometry": { "type": "Point", "coordinates": [ -75.235693, 20.52603 ] } },
{ "type": "Feature", "properties": { "id": "01a0b893-9647-773c-87f5-2f02bb7155a7", "codpa_code": "32.14", "name": "Moa", "level": "municipality", "province_code": "32", "province_name": "Holguín", "gns_id": "14594020", "geonames_id": "11288233", "overture_id": "8ad55189-8fc1-4861-86c0-2e7b00a47fce", "lat": 20.554771, "lon": -74.912808 }, "geometry": { "type": "Point", "coordinates": [ -74.912808, 20.554771 ] } },
{ "type": "Feature", "properties": { "id": "01a0b893-9647-773c-87f5-2f03b1a7932c", "codpa_code": "33", "name": "Granma", "level": "province", "province_code": "33", "province_name": "Granma", "gns_id": "-1624158", "geonames_id": "3558052", "overture_id": "1d5538ee-5516-47ba-809c-2e8661ad231a", "lat": 20.283333, "lon": -76.866667 }, "geometry": { "type": "Point", "coordinates": [ -76.866667, 20.283333 ] } },
{ "type": "Feature", "properties": { "id": "01a0b893-9647-773c-87f5-2f0455d62194", "codpa_code": "33.01", "name": "Río Cauto", "level": "municipality", "province_code": "33", "province_name": "Granma", "gns_id": "14593989", "geonames_id": "11287710", "overture_id": "d2e74fc9-50cb-4950-b22a-b695bbd5045b", "lat": 20.600342, "lon": -76.976141 }, "geometry": { "type": "Point", "coordinates": [ -76.976141, 20.600342 ] } },
{ "type": "Feature", "properties": { "id": "01a0b893-9647-773c-87f5-2f056f11faa0", "codpa_code": "33.02", "name": "Cauto Cristo", "level": "municipality", "province_code": "33", "province_name": "Granma", "gns_id": "14593990", "geonames_id": "11288211", "overture_id": "3f4edad6-64c0-4311-bfb8-450c9593f86d", "lat": 20.592643, "lon": -76.56809899 }, "geometry": { "type": "Point", "coordinates": [ -76.56809899, 20.592643 ] } },
{ "type": "Feature", "properties": { "id": "01a0b893-9647-773c-87f5-2f068319e171", "codpa_code": "33.03", "name": "Jiguaní", "level": "municipality", "province_code": "33", "province_name": "Granma", "gns_id": "-1626056", "geonames_id": "3556166", "overture_id": "71ceb758-5b5a-469c-8db9-20f5f5a86317", "lat": 20.40867086, "lon": -76.39090634 }, "geometry": { "type": "Point", "coordinates": [ -76.39090634, 20.40867086 ] } },
{ "type": "Feature", "properties": { "id": "01a0b893-9647-773c-87f5-2f075ebb1230", "codpa_code": "33.04", "name": "Bayamo", "level": "municipality", "province_code": "33", "province_name": "Granma", "gns_id": "-1614586", "geonames_id": "3567595", "overture_id": "7c58762c-5575-4abf-851c-0c39ce3a67de", "lat": 20.403887, "lon": -76.673345 }, "geometry": { "type": "Point", "coordinates": [ -76.673345, 20.403887 ] } },
{ "type": "Feature", "properties": { "id": "01a0b893-9647-773c-87f5-2f0883a3e09e", "codpa_code": "33.05", "name": "Yara", "level": "municipality", "province_code": "33", "province_name": "Granma", "gns_id": "14593996", "geonames_id": "11288221", "overture_id": "3d875bb6-41fd-4d65-a2bd-041d55f732fc", "lat": 20.353232, "lon": -76.940849 }, "geometry": { "type": "Point", "coordinates": [ -76.940849, 20.353232 ] } },
{ "type": "Feature", "properties": { "id": "01a0b893-9647-773c-87f5-2f09617e50d7", "codpa_code": "33.06", "name": "Manzanillo", "level": "municipality", "province_code": "33", "province_name": "Granma", "gns_id": "-1634380", "geonames_id": "3547864", "overture_id": "1900adf6-3152-402d-8b6d-dc3b4fb4d798", "lat": 20.249041, "lon": -77.095039 }, "geometry": { "type": "Point", "coordinates": [ -77.095039, 20.249041 ] } },
{ "type": "Feature", "properties": { "id": "01a0b893-9647-773c-87f5-2f0a0eac160c", "codpa_code": "33.07", "name": "Campechuela", "level": "municipality", "province_code": "33", "province_name": "Granma", "gns_id": "-1616236", "geonames_id": "3565950", "overture_id": "c8cdb980-b5e1-4b4e-a1c9-76b2462024af", "lat": 20.117288, "lon": -77.227106 }, "geometry": { "type": "Point", "coordinates": [ -77.227106, 20.117288 ] } },
{ "type": "Feature", "properties": { "id": "01a0b893-9647-773c-87f5-2f0b17925b84", "codpa_code": "33.08", "name": "Media Luna", "level": "municipality", "province_code": "33", "province_name": "Granma", "gns_id": "14593995", "geonames_id": "11288219", "overture_id": "adac4c79-e238-4e40-959e-ae3b7c0bb874", "lat": 20.062616, "lon": -77.378429 }, "geometry": { "type": "Point", "coordinates": [ -77.378429, 20.062616 ] } },
{ "type": "Feature", "properties": { "id": "01a0b893-9647-773c-87f5-2f0c79ed36cc", "codpa_code": "33.09", "name": "Niquero", "level": "municipality", "province_code": "33", "province_name": "Granma", "gns_id": "-1636272", "geonames_id": "3545978", "overture_id": "0daac8ef-f4aa-46a7-b558-9e6eb32acbff", "lat": 19.944765, "lon": -77.569827 }, "geometry": { "type": "Point", "coordinates": [ -77.569827, 19.944765 ] } },
{ "type": "Feature", "properties": { "id": "01a0b893-9647-773c-87f5-2f0dd22745b1", "codpa_code": "33.10", "name": "Pilón", "level": "municipality", "province_code": "33", "province_name": "Granma", "gns_id": "14593994", "geonames_id": "11288220", "overture_id": "6f70ff94-079f-4ed9-89ad-ee7351977509", "lat": 19.915942, "lon": -77.366732 }, "geometry": { "type": "Point", "coordinates": [ -77.366732, 19.915942 ] } },
{ "type": "Feature", "properties": { "id": "01a0b893-9647-773c-87f5-2f0e5d9aedae", "codpa_code": "33.11", "name": "Bartolomé Masó", "level": "municipality", "province_code": "33", "province_name": "Granma", "gns_id": "14593993", "geonames_id": "11288196", "overture_id": "3b99cb2b-3198-4b62-ac27-f167bc9c3da7", "lat": 20.101399, "lon": -76.931585 }, "geometry": { "type": "Point", "coordinates": [ -76.931585, 20.101399 ] } },
{ "type": "Feature", "properties": { "id": "01a0b893-9647-773c-87f5-2f0f0b7cbd0a", "codpa_code": "33.12", "name": "Buey Arriba", "level": "municipality", "province_code": "33", "province_name": "Granma", "gns_id": "14593992", "geonames_id": "11288210", "overture_id": "98460230-f074-495f-88e4-03881e083f2a", "lat": 20.119833, "lon": -76.718103 }, "geometry": { "type": "Point", "coordinates": [ -76.718103, 20.119833 ] } },
{ "type": "Feature", "properties": { "id": "01a0b893-9647-773c-87f5-2f103bfa9c7c", "codpa_code": "33.13", "name": "Guisa", "level": "municipality", "province_code": "33", "province_name": "Granma", "gns_id": "14593991", "geonames_id": "11288218", "overture_id": "c256f7f3-715d-4273-abe3-d93f96d19633", "lat": 20.168443, "lon": -76.529187 }, "geometry": { "type": "Point", "coordinates": [ -76.529187, 20.168443 ] } },
{ "type": "Feature", "properties": { "id": "01a0b893-9647-773c-87f5-2f11099ed2cc", "codpa_code": "34", "name": "Santiago de Cuba", "level": "province", "province_code": "34", "province_name": "Santiago de Cuba", "gns_id": "-1645547", "geonames_id": "3536725", "overture_id": "7500019f-39a2-4a17-81b6-b22620c7f09d", "lat": 20.2, "lon": -75.933333 }, "geometry": { "type": "Point", "coordinates": [ -75.933333, 20.2 ] } },
{ "type": "Feature", "properties": { "id": "01a0b893-9647-773c-87f5-2f123b6b167b", "codpa_code": "34.01", "name": "Contramaestre", "level": "municipality", "province_code": "34", "province_name": "Santiago de Cuba", "gns_id": "14593999", "geonames_id": "11288243", "overture_id": "aa3dfbd5-18be-4d03-98de-8e37f8f363b6", "lat": 20.324368, "lon": -76.221894 }, "geometry": { "type": "Point", "coordinates": [ -76.221894, 20.324368 ] } },
{ "type": "Feature", "properties": { "id": "01a0b893-9647-773c-87f5-2f13f2597561", "codpa_code": "34.02", "name": "Mella", "level": "municipality", "province_code": "34", "province_name": "Santiago de Cuba", "gns_id": "14593998", "geonames_id": "11288245", "overture_id": "6a5c6248-bf7d-4278-b011-742f068b563c", "lat": 20.425315, "lon": -75.954972 }, "geometry": { "type": "Point", "coordinates": [ -75.954972, 20.425315 ] } },
{ "type": "Feature", "properties": { "id": "01a0b893-9647-773c-87f5-2f14e0b1ea03", "codpa_code": "34.03", "name": "San Luis", "level": "municipality", "province_code": "34", "province_name": "Santiago de Cuba", "gns_id": "-1643191", "geonames_id": "3539073", "overture_id": "5948bf5e-9356-406f-88b7-80782d85bab6", "lat": 20.277409, "lon": -75.793891 }, "geometry": { "type": "Point", "coordinates": [ -75.793891, 20.277409 ] } },
{ "type": "Feature", "properties": { "id": "01a0b893-9647-773c-87f5-2f1559c32587", "codpa_code": "34.04", "name": "Segundo Frente", "level": "municipality", "province_code": "34", "province_name": "Santiago de Cuba", "gns_id": "14593997", "geonames_id": "11288246", "overture_id": "93ed5030-2c52-40b9-ae9f-f5a2410e7fa7", "lat": 20.422014, "lon": -75.521113 }, "geometry": { "type": "Point", "coordinates": [ -75.521113, 20.422014 ] } },
{ "type": "Feature", "properties": { "id": "01a0b893-9647-773c-87f5-2f16605636f4", "codpa_code": "34.05", "name": "Songo - La Maya", "level": "municipality", "province_code": "34", "province_name": "Santiago de Cuba", "gns_id": "-1613106", "geonames_id": "11288254", "overture_id": "68ea697b-2b97-45b1-b8cd-7932126ca6c5", "lat": 20.194065, "lon": -75.589195 }, "geometry": { "type": "Point", "coordinates": [ -75.589195, 20.194065 ] } },
{ "type": "Feature", "properties": { "id": "01a0b893-9647-773c-87f5-2f1722eccc5a", "codpa_code": "34.06", "name": "Santiago de Cuba", "level": "municipality", "province_code": "34", "province_name": "Santiago de Cuba", "gns_id": "-1645546", "geonames_id": "3536726", "overture_id": "7f11ea4a-fbb1-4a3a-8888-ebfdd5e0ecae", "lat": 20.040403, "lon": -75.723781 }, "geometry": { "type": "Point", "coordinates": [ -75.723781, 20.040403 ] } },
{ "type": "Feature", "properties": { "id": "01a0b893-9647-773c-87f5-2f18d6978483", "codpa_code": "34.07", "name": "Palma Soriano", "level": "municipality", "province_code": "34", "province_name": "Santiago de Cuba", "gns_id": "-1637190", "geonames_id": "3545062", "overture_id": "67fa18a7-50ef-4a71-9214-4308788a495e", "lat": 20.211058, "lon": -76.04803 }, "geometry": { "type": "Point", "coordinates": [ -76.04803, 20.211058 ] } },
{ "type": "Feature", "properties": { "id": "01a0b893-9647-773c-87f5-2f19d3ec0647", "codpa_code": "34.08", "name": "Tercer Frente", "level": "municipality", "province_code": "34", "province_name": "Santiago de Cuba", "gns_id": "14594000", "geonames_id": "11288247", "overture_id": "e60eccda-1af9-4195-9214-ceb77896b760", "lat": 20.134422, "lon": -76.295644 }, "geometry": { "type": "Point", "coordinates": [ -76.295644, 20.134422 ] } },
{ "type": "Feature", "properties": { "id": "01a0b893-9647-773c-87f5-2f1a193c80b0", "codpa_code": "34.09", "name": "Guamá", "level": "municipality", "province_code": "34", "province_name": "Santiago de Cuba", "gns_id": "14594001", "geonames_id": "11288244", "overture_id": "59cd6a8d-e778-429d-9367-085b44e9eaf6", "lat": 19.998229, "lon": -76.507239 }, "geometry": { "type": "Point", "coordinates": [ -76.507239, 19.998229 ] } },
{ "type": "Feature", "properties": { "id": "01a0b893-9647-773c-87f5-2f1b1872f9d2", "codpa_code": "35", "name": "Guantánamo", "level": "province", "province_code": "35", "province_name": "Guantánamo", "gns_id": "-1624527", "geonames_id": "3557685", "overture_id": "532d6fca-7980-46b0-8f41-1e5f270790f4", "lat": 20.216667, "lon": -74.866667 }, "geometry": { "type": "Point", "coordinates": [ -74.866667, 20.216667 ] } },
{ "type": "Feature", "properties": { "id": "01a0b893-9647-773c-87f5-2f1c4007e0a3", "codpa_code": "35.01", "name": "El Salvador", "level": "municipality", "province_code": "35", "province_name": "Guantánamo", "gns_id": "14594002", "geonames_id": "11288223", "overture_id": "d6e278ad-7d0e-4767-ac3c-efbd192fa8ff", "lat": 20.284914, "lon": -75.341028 }, "geometry": { "type": "Point", "coordinates": [ -75.341028, 20.284914 ] } },
{ "type": "Feature", "properties": { "id": "01a0b893-9647-773c-87f5-2f1d0fc4ec60", "codpa_code": "35.02", "name": "Manuel Tames", "level": "municipality", "province_code": "35", "province_name": "Guantánamo", "gns_id": "14594005", "geonames_id": "11288226", "overture_id": "ce64b528-08e2-41dc-847e-4db6449ea45b", "lat": 20.19885729, "lon": -75.08216555 }, "geometry": { "type": "Point", "coordinates": [ -75.08216555, 20.19885729 ] } },
{ "type": "Feature", "properties": { "id": "01a0b893-9647-773c-87f5-2f1e0861b3e9", "codpa_code": "35.03", "name": "Yateras", "level": "municipality", "province_code": "35", "province_name": "Guantánamo", "gns_id": "-1648556", "geonames_id": "3533721", "overture_id": "3ac02146-fbca-4b17-8604-b63fcaae3e7b", "lat": 20.362301, "lon": -74.911901 }, "geometry": { "type": "Point", "coordinates": [ -74.911901, 20.362301 ] } },
{ "type": "Feature", "properties": { "id": "01a0b893-9647-773c-87f5-2f1f8d1cf669", "codpa_code": "35.04", "name": "Baracoa", "level": "municipality", "province_code": "35", "province_name": "Guantánamo", "gns_id": "-1614350", "geonames_id": "3567831", "overture_id": "e4319de5-a6a8-4cb2-9e44-0591bbdc6fec", "lat": 20.339183, "lon": -74.571252 }, "geometry": { "type": "Point", "coordinates": [ -74.571252, 20.339183 ] } },
{ "type": "Feature", "properties": { "id": "01a0b893-9647-773c-87f5-2f20ac32e8d6", "codpa_code": "35.05", "name": "Maisí", "level": "municipality", "province_code": "35", "province_name": "Guantánamo", "gns_id": "14594009", "geonames_id": "11288225", "overture_id": "136d5931-6ea2-4961-82c3-16ef55740cae", "lat": 20.180563, "lon": -74.281667 }, "geometry": { "type": "Point", "coordinates": [ -74.281667, 20.180563 ] } },
{ "type": "Feature", "properties": { "id": "01a0b893-9647-773c-87f5-2f21b01c4272", "codpa_code": "35.06", "name": "Imías", "level": "municipality", "province_code": "35", "province_name": "Guantánamo", "gns_id": "14594008", "geonames_id": "11288224", "overture_id": "d3e6ab64-1f74-46ff-ae7c-bad274cc4698", "lat": 20.13599677, "lon": -74.59201804 }, "geometry": { "type": "Point", "coordinates": [ -74.59201804, 20.13599677 ] } },
{ "type": "Feature", "properties": { "id": "01a0b893-9647-773c-87f5-2f2284414ce1", "codpa_code": "35.07", "name": "San Antonio del Sur", "level": "municipality", "province_code": "35", "province_name": "Guantánamo", "gns_id": "14594006", "geonames_id": "11288229", "overture_id": "f28bb10e-c4e2-4f64-b79e-cfa851792ce9", "lat": 20.147887, "lon": -74.811334 }, "geometry": { "type": "Point", "coordinates": [ -74.811334, 20.147887 ] } },
{ "type": "Feature", "properties": { "id": "01a0b893-9647-773c-87f5-2f23155d0a0d", "codpa_code": "35.08", "name": "Caimanera", "level": "municipality", "province_code": "35", "province_name": "Guantánamo", "gns_id": "14594004", "geonames_id": "11288222", "overture_id": "d35adbc6-6163-4f82-8097-79193c73c660", "lat": 19.965356, "lon": -75.041224 }, "geometry": { "type": "Point", "coordinates": [ -75.041224, 19.965356 ] } },
{ "type": "Feature", "properties": { "id": "01a0b893-9647-773c-87f5-2f2465498d2e", "codpa_code": "35.09", "name": "Guantánamo", "level": "municipality", "province_code": "35", "province_name": "Guantánamo", "gns_id": "-1624526", "geonames_id": "3557686", "overture_id": "389a664b-15ff-4adf-9777-28daae89b0fc", "lat": 20.101875, "lon": -75.161446 }, "geometry": { "type": "Point", "coordinates": [ -75.161446, 20.101875 ] } },
{ "type": "Feature", "properties": { "id": "01a0b893-9647-773c-87f5-2f252e8b1fe6", "codpa_code": "35.10", "name": "Niceto Pérez", "level": "municipality", "province_code": "35", "province_name": "Guantánamo", "gns_id": "14594003", "geonames_id": "11288227", "overture_id": "e959801b-8756-4043-9a5d-9dce6a4033f0", "lat": 20.050016, "lon": -75.353727 }, "geometry": { "type": "Point", "coordinates": [ -75.353727, 20.050016 ] } },
{ "type": "Feature", "properties": { "id": "01a0b893-9647-773c-87f5-2f26e8cc35c8", "codpa_code": "40.01", "name": "Isla de la Juventud", "level": "special_municipality", "province_code": null, "province_name": null, "gns_id": "-1625610", "geonames_id": "3556608", "overture_id": "571dfc68-c43e-49b9-babc-8a8933d6fded", "lat": 21.7, "lon": -82.816667 }, "geometry": { "type": "Point", "coordinates": [ -82.816667, 21.7 ] } }
]
}
